CCSDS_OMM_VERS = 2.0
CREATION_DATE  = 
ORIGINATOR     = 

OBJECT_NAME    = SL-3 R/B
OBJECT_ID      = 1982-079B
CENTER_NAME    = EARTH
REF_FRAME      = TEME
TIME_SYSTEM    = UTC
MEAN_ELEMENT_THEORY = SGP/SGP4

EPOCH          = 2025-12-06T13:44:59.369568
MEAN_MOTION    = 15.23482081
ECCENTRICITY   = .00269092
INCLINATION    = 81.1470
RA_OF_ASC_NODE = 302.9291
ARG_OF_PERICENTER = 118.8360
MEAN_ANOMALY   = 241.5579

EPHEMERIS_TYPE = 0
CLASSIFICATION_TYPE = U
NORAD_CAT_ID   = 13403
ELEMENT_SET_NO = 999
REV_AT_EPOCH   = 36351
BSTAR          = .41509291E-3
MEAN_MOTION_DOT = .10029E-3
MEAN_MOTION_DDOT = 0

CCSDS_OMM_VERS = 2.0
CREATION_DATE  = 
ORIGINATOR     = 

OBJECT_NAME    = SL-14 R/B
OBJECT_ID      = 1982-092B
CENTER_NAME    = EARTH
REF_FRAME      = TEME
TIME_SYSTEM    = UTC
MEAN_ELEMENT_THEORY = SGP/SGP4

EPOCH          = 2025-12-06T10:35:47.467104
MEAN_MOTION    = 14.86546301
ECCENTRICITY   = .00189163
INCLINATION    = 82.5687
RA_OF_ASC_NODE = 228.6015
ARG_OF_PERICENTER = 249.4903
MEAN_ANOMALY   = 283.7223

EPHEMERIS_TYPE = 0
CLASSIFICATION_TYPE = U
NORAD_CAT_ID   = 13553
ELEMENT_SET_NO = 999
REV_AT_EPOCH   = 31507
BSTAR          = .10907343E-3
MEAN_MOTION_DOT = .993E-5
MEAN_MOTION_DDOT = 0

CCSDS_OMM_VERS = 2.0
CREATION_DATE  = 
ORIGINATOR     = 

OBJECT_NAME    = SL-3 R/B
OBJECT_ID      = 1983-010B
CENTER_NAME    = EARTH
REF_FRAME      = TEME
TIME_SYSTEM    = UTC
MEAN_ELEMENT_THEORY = SGP/SGP4

EPOCH          = 2025-12-06T11:35:31.695936
MEAN_MOTION    = 15.43210634
ECCENTRICITY   = .00174466
INCLINATION    = 81.1039
RA_OF_ASC_NODE = 116.2543
ARG_OF_PERICENTER = 12.8425
MEAN_ANOMALY   = 347.3258

EPHEMERIS_TYPE = 0
CLASSIFICATION_TYPE = U
NORAD_CAT_ID   = 13819
ELEMENT_SET_NO = 999
REV_AT_EPOCH   = 34355
BSTAR          = .50300545E-3
MEAN_MOTION_DOT = .22507E-3
MEAN_MOTION_DDOT = 0

CCSDS_OMM_VERS = 2.0
CREATION_DATE  = 
ORIGINATOR     = 

OBJECT_NAME    = SL-3 R/B
OBJECT_ID      = 1983-075B
CENTER_NAME    = EARTH
REF_FRAME      = TEME
TIME_SYSTEM    = UTC
MEAN_ELEMENT_THEORY = SGP/SGP4

EPOCH          = 2025-12-06T14:21:54.860832
MEAN_MOTION    = 15.35952427
ECCENTRICITY   = .00220196
INCLINATION    = 97.6099
RA_OF_ASC_NODE = 336.8765
ARG_OF_PERICENTER = 197.6897
MEAN_ANOMALY   = 162.3582

EPHEMERIS_TYPE = 0
CLASSIFICATION_TYPE = U
NORAD_CAT_ID   = 14208
ELEMENT_SET_NO = 999
REV_AT_EPOCH   = 31585
BSTAR          = .4696904E-3
MEAN_MOTION_DOT = .165E-3
MEAN_MOTION_DDOT = 0

CCSDS_OMM_VERS = 2.0
CREATION_DATE  = 
ORIGINATOR     = 

OBJECT_NAME    = COSMOS 1536
OBJECT_ID      = 1984-013A
CENTER_NAME    = EARTH
REF_FRAME      = TEME
TIME_SYSTEM    = UTC
MEAN_ELEMENT_THEORY = SGP/SGP4

EPOCH          = 2025-12-06T15:04:35.900256
MEAN_MOTION    = 15.22416799
ECCENTRICITY   = .00132701
INCLINATION    = 82.5451
RA_OF_ASC_NODE = 200.2247
ARG_OF_PERICENTER = 249.1720
MEAN_ANOMALY   = 110.8096

EPHEMERIS_TYPE = 0
CLASSIFICATION_TYPE = U
NORAD_CAT_ID   = 14699
ELEMENT_SET_NO = 999
REV_AT_EPOCH   = 25845
BSTAR          = .40436282E-3
MEAN_MOTION_DOT = .9399E-4
MEAN_MOTION_DDOT = 0

CCSDS_OMM_VERS = 2.0
CREATION_DATE  = 
ORIGINATOR     = 

OBJECT_NAME    = SL-14 R/B
OBJECT_ID      = 1984-027B
CENTER_NAME    = EARTH
REF_FRAME      = TEME
TIME_SYSTEM    = UTC
MEAN_ELEMENT_THEORY = SGP/SGP4

EPOCH          = 2025-12-06T10:15:24.527808
MEAN_MOTION    = 14.85864259
ECCENTRICITY   = .00164394
INCLINATION    = 82.5408
RA_OF_ASC_NODE = 332.4765
ARG_OF_PERICENTER = 283.7456
MEAN_ANOMALY   = 76.1931

EPHEMERIS_TYPE = 0
CLASSIFICATION_TYPE = U
NORAD_CAT_ID   = 14820
ELEMENT_SET_NO = 999
REV_AT_EPOCH   = 23378
BSTAR          = .11385459E-3
MEAN_MOTION_DOT = .1017E-4
MEAN_MOTION_DDOT = 0

CCSDS_OMM_VERS = 2.0
CREATION_DATE  = 
ORIGINATOR     = 

OBJECT_NAME    = SL-8 R/B
OBJECT_ID      = 1985-006B
CENTER_NAME    = EARTH
REF_FRAME      = TEME
TIME_SYSTEM    = UTC
MEAN_ELEMENT_THEORY = SGP/SGP4

EPOCH          = 2025-12-06T15:16:18.367680
MEAN_MOTION    = 14.37715826
ECCENTRICITY   = .00184173
INCLINATION    = 74.0467
RA_OF_ASC_NODE = 72.3637
ARG_OF_PERICENTER = 6.1289
MEAN_ANOMALY   = 97.6645

EPHEMERIS_TYPE = 0
CLASSIFICATION_TYPE = U
NORAD_CAT_ID   = 15483
ELEMENT_SET_NO = 999
REV_AT_EPOCH   = 14065
BSTAR          = .18371241E-3
MEAN_MOTION_DOT = .527E-5
MEAN_MOTION_DDOT = 0

CCSDS_OMM_VERS = 2.0
CREATION_DATE  = 
ORIGINATOR     = 

OBJECT_NAME    = SL-12 R/B(2)
OBJECT_ID      = 1985-042D
CENTER_NAME    = EARTH
REF_FRAME      = TEME
TIME_SYSTEM    = UTC
MEAN_ELEMENT_THEORY = SGP/SGP4

EPOCH          = 2025-12-06T13:51:20.850624
MEAN_MOTION    = 14.21948948
ECCENTRICITY   = .00376904
INCLINATION    = 71.1084
RA_OF_ASC_NODE = 284.4384
ARG_OF_PERICENTER = 270.5391
MEAN_ANOMALY   = 262.9870

EPHEMERIS_TYPE = 0
CLASSIFICATION_TYPE = U
NORAD_CAT_ID   = 15772
ELEMENT_SET_NO = 999
REV_AT_EPOCH   = 10115
BSTAR          = .13979092E-3
MEAN_MOTION_DOT = .263E-5
MEAN_MOTION_DDOT = 0

CCSDS_OMM_VERS = 2.0
CREATION_DATE  = 
ORIGINATOR     = 

OBJECT_NAME    = SL-14 R/B
OBJECT_ID      = 1985-069B
CENTER_NAME    = EARTH
REF_FRAME      = TEME
TIME_SYSTEM    = UTC
MEAN_ELEMENT_THEORY = SGP/SGP4

EPOCH          = 2025-12-06T15:25:11.198208
MEAN_MOTION    = 14.86313158
ECCENTRICITY   = .00198109
INCLINATION    = 82.5263
RA_OF_ASC_NODE = 112.4347
ARG_OF_PERICENTER = 137.5037
MEAN_ANOMALY   = 222.7717

EPHEMERIS_TYPE = 0
CLASSIFICATION_TYPE = U
NORAD_CAT_ID   = 15945
ELEMENT_SET_NO = 999
REV_AT_EPOCH   = 15901
BSTAR          = .12666292E-3
MEAN_MOTION_DOT = .1143E-4
MEAN_MOTION_DDOT = 0

CCSDS_OMM_VERS = 2.0
CREATION_DATE  = 
ORIGINATOR     = 

OBJECT_NAME    = SL-16 R/B
OBJECT_ID      = 1985-097B
CENTER_NAME    = EARTH
REF_FRAME      = TEME
TIME_SYSTEM    = UTC
MEAN_ELEMENT_THEORY = SGP/SGP4

EPOCH          = 2025-12-06T10:39:24.401088
MEAN_MOTION    = 14.16581699
ECCENTRICITY   = .00062848
INCLINATION    = 71.0029
RA_OF_ASC_NODE = 336.8580
ARG_OF_PERICENTER = 20.7179
MEAN_ANOMALY   = 141.0610

EPHEMERIS_TYPE = 0
CLASSIFICATION_TYPE = U
NORAD_CAT_ID   = 16182
ELEMENT_SET_NO = 999
REV_AT_EPOCH   = 7402
BSTAR          = .9087296E-5
MEAN_MOTION_DOT = -.3E-6
MEAN_MOTION_DDOT = 0

CCSDS_OMM_VERS = 2.0
CREATION_DATE  = 
ORIGINATOR     = 

OBJECT_NAME    = SL-14 R/B
OBJECT_ID      = 1986-006B
CENTER_NAME    = EARTH
REF_FRAME      = TEME
TIME_SYSTEM    = UTC
MEAN_ELEMENT_THEORY = SGP/SGP4

EPOCH          = 2025-12-06T07:20:19.728096
MEAN_MOTION    = 14.86659209
ECCENTRICITY   = .00756665
INCLINATION    = 82.5266
RA_OF_ASC_NODE = 347.6058
ARG_OF_PERICENTER = 221.3954
MEAN_ANOMALY   = 138.1516

EPHEMERIS_TYPE = 0
CLASSIFICATION_TYPE = U
NORAD_CAT_ID   = 16496
ELEMENT_SET_NO = 999
REV_AT_EPOCH   = 13533
BSTAR          = .13668991E-3
MEAN_MOTION_DOT = .1304E-4
MEAN_MOTION_DDOT = 0

CCSDS_OMM_VERS = 2.0
CREATION_DATE  = 
ORIGINATOR     = 

OBJECT_NAME    = COSMOS 1743
OBJECT_ID      = 1986-034A
CENTER_NAME    = EARTH
REF_FRAME      = TEME
TIME_SYSTEM    = UTC
MEAN_ELEMENT_THEORY = SGP/SGP4

EPOCH          = 2025-12-06T14:14:27.567168
MEAN_MOTION    = 15.51686376
ECCENTRICITY   = .00047316
INCLINATION    = 82.5342
RA_OF_ASC_NODE = 170.9734
ARG_OF_PERICENTER = 280.4874
MEAN_ANOMALY   = 79.5844

EPHEMERIS_TYPE = 0
CLASSIFICATION_TYPE = U
NORAD_CAT_ID   = 16719
ELEMENT_SET_NO = 999
REV_AT_EPOCH   = 16578
BSTAR          = .68961283E-3
MEAN_MOTION_DOT = .41206E-3
MEAN_MOTION_DDOT = 0

