SL-3 R/B                
1 13403U 82079B   25340.57290937  .00010029  00000+0  41509-3 0  9996
2 13403  81.1470 302.9291 0026909 118.8360 241.5579 15.23482081363518
SL-14 R/B               
1 13553U 82092B   25340.44152161  .00000993  00000+0  10907-3 0  9996
2 13553  82.5687 228.6015 0018916 249.4903 283.7223 14.86546301315076
SL-3 R/B                
1 13819U 83010B   25340.48300574  .00022507  00000+0  50301-3 0  9996
2 13819  81.1039 116.2543 0017446  12.8425 347.3258 15.43210634343553
SL-3 R/B                
1 14208U 83075B   25340.59855163  .00016500  00000+0  46969-3 0  9992
2 14208  97.6099 336.8765 0022019 197.6897 162.3582 15.35952427315858
COSMOS 1536             
1 14699U 84013A   25340.62819329  .00009399  00000+0  40436-3 0  9998
2 14699  82.5451 200.2247 0013270 249.1720 110.8096 15.22416799258456
SL-14 R/B               
1 14820U 84027B   25340.42736722  .00001017  00000+0  11385-3 0  9992
2 14820  82.5408 332.4765 0016439 283.7456  76.1931 14.85864259233784
SL-8 R/B                
1 15483U 85006B   25340.63632370  .00000527  00000+0  18371-3 0  9990
2 15483  74.0467  72.3637 0018417   6.1289  97.6645 14.37715826140653
SL-12 R/B(2)            
1 15772U 85042D   25340.57732466  .00000263  00000+0  13979-3 0  9997
2 15772  71.1084 284.4384 0037690 270.5391 262.9870 14.21948948101152
SL-14 R/B               
1 15945U 85069B   25340.64249072  .00001143  00000+0  12666-3 0  9992
2 15945  82.5263 112.4347 0019810 137.5037 222.7717 14.86313158159013
SL-16 R/B               
1 16182U 85097B   25340.44403242 -.00000030  00000+0  90873-5 0  9999
2 16182  71.0029 336.8580 0006284  20.7179 141.0610 14.16581699 74024
SL-14 R/B               
1 16496U 86006B   25340.30578389  .00001304  00000+0  13669-3 0  9998
2 16496  82.5266 347.6058 0075666 221.3954 138.1516 14.86659209135336
COSMOS 1743             
1 16719U 86034A   25340.59337462  .00041206  00000+0  68961-3 0  9993
2 16719  82.5342 170.9734 0004731 280.4874  79.5844 15.51686376165781
